[{"OBJECT_NAME":"STARLINK-4436","OBJECT_ID":"2022-099Q","EPOCH":"2026-03-09T21:38:57.471648","MEAN_MOTION":15.05652424,"ECCENTRICITY":6.437e-5,"INCLINATION":97.6029,"RA_OF_ASC_NODE":191.5003,"ARG_OF_PERICENTER":290.9391,"MEAN_ANOMALY":69.1767,"EPHEMERIS_TYPE":0,"CLASSIFICATION_TYPE":"U","NORAD_CAT_ID":53479,"ELEMENT_SET_NO":999,"REV_AT_EPOCH":19608,"BSTAR":6.4351145e-5,"MEAN_MOTION_DOT":8.68e-6,"MEAN_MOTION_DDOT":0},{"OBJECT_NAME":"SL-18 R\/B","OBJECT_ID":"2001-007B","EPOCH":"2026-03-09T23:25:11.323200","MEAN_MOTION":15.07301441,"ECCENTRICITY":0.00085554,"INCLINATION":97.6926,"RA_OF_ASC_NODE":87.6817,"ARG_OF_PERICENTER":353.225,"MEAN_ANOMALY":6.886,"EPHEMERIS_TYPE":0,"CLASSIFICATION_TYPE":"U","NORAD_CAT_ID":26703,"ELEMENT_SET_NO":999,"REV_AT_EPOCH":64619,"BSTAR":0.00021543689,"MEAN_MOTION_DOT":3.19e-5,"MEAN_MOTION_DDOT":0}]
